ONEWEB-0647             
1 56079U 23043AK  25210.03359772 -.00000043  00000+0 -14897-3 0  9995
2 56079  87.9086 323.6789 0002135  99.3925 260.7447 13.15550271113930
ONEWEB-0651             
1 56080U 23043AL  25210.02884772 -.00000086  00000+0 -26367-3 0  9991
2 56080  87.9089 323.6690 0001994 107.9434 252.1914 13.15549380113932
ONEWEB-0718             
1 56081U 23043AM  25210.25225720  .00000042  00000+0  77017-4 0  9998
2 56081  87.9090 323.6076 0001484  93.4213 266.7087 13.15550545114883
ONEWEB-0561             
1 56710U 23068A   25209.64051110  .00000037  00000+0  59462-4 0  9993
2 56710  87.9282 338.9185 0002358 104.3574 255.7821 13.20769432106796
ONEWEB-0668             
1 56711U 23068B   25209.55756433  .00000127  00000+0  29909-3 0  9996
2 56711  87.9060 293.2641 0001450  99.9103 260.2192 13.16596616109196
ONEWEB-0676             
1 56712U 23068C   25209.76578067  .00000096  00000+0  21873-3 0  9992
2 56712  87.9051 293.2463 0002420 104.9472 255.1927 13.16595654109845
ONEWEB-0677             
1 56713U 23068D   25210.08402627  .00000057  00000+0  10902-3 0  9996
2 56713  87.9278 338.8072 0001945 107.6820 252.4526 13.20771698107850
ONEWEB-0678             
1 56714U 23068E   25209.84028893  .00000117  00000+0  27551-3 0  9993
2 56714  87.9090 323.6611 0002193  93.9581 266.1800 13.15549241107477
ONEWEB-0679             
1 56715U 23068F   25209.73490091 -.00000009  00000+0 -57545-4 0  9994
2 56715  87.9048 293.2445 0001856 114.6113 245.5211 13.16595376109868
ONEWEB-0680             
1 56716U 23068G   25209.79792821 -.00000027  00000+0 -97081-4 0  9996
2 56716  87.9266 308.4812 0001365 108.1753 251.9529 13.21825784109072
ONEWEB-0681             
1 56717U 23068H   25209.79466679  .00000044  00000+0  72922-4 0  9990
2 56717  87.9272 308.5053 0002617 118.0705 242.0694 13.23383250109068
ONEWEB-0682             
1 56718U 23068J   25209.33402252  .00000087  00000+0  19635-3 0  9996
2 56718  87.9072 323.7891 0001464 109.3719 250.7570 13.15548835106871
ONEWEB-0683             
1 56719U 23068K   25209.58358096 -.00000021  00000+0 -90361-4 0  9996
2 56719  87.9085 323.7123 0001626 102.5234 257.6078 13.15550448106873
ONEWEB-0684             
1 56720U 23068L   25209.36333663  .00000036  00000+0  60868-4 0  9990
2 56720  87.9058 323.7644 0002720  69.5445 290.5977 13.15549212106674
ONEWEB-0686             
1 56721U 23068M   25209.72460935 -.00000074  00000+0 -22610-3 0  9990
2 56721  87.9044 293.2800 0001751  93.9656 266.1675 13.16595815109851
ONEWEB-0694             
1 56722U 23068N   25209.76736424  .00000095  00000+0  21591-3 0  9992
2 56722  87.9060 293.1935 0001599 105.3411 254.7897 13.16592961109910
ONEWEB-0696             
1 56723U 23068P   25210.00506996  .00000168  00000+0  41111-3 0  9992
2 56723  87.9088 323.6815 0002152  93.8669 266.2708 13.15550080107573
