[{"OBJECT_NAME":"ONEWEB-0647","OBJECT_ID":"2023-043AK","EPOCH":"2025-07-29T00:48:22.843008","MEAN_MOTION":13.15550271,"ECCENTRICITY":0.0002135,"INCLINATION":87.9086,"RA_OF_ASC_NODE":323.6789,"ARG_OF_PERICENTER":99.3925,"MEAN_ANOMALY":260.7447,"EPHEMERIS_TYPE":0,"CLASSIFICATION_TYPE":"U","NORAD_CAT_ID":56079,"ELEMENT_SET_NO":999,"REV_AT_EPOCH":11393,"BSTAR":-0.00014897,"MEAN_MOTION_DOT":-4.3e-7,"MEAN_MOTION_DDOT":0},{"OBJECT_NAME":"ONEWEB-0651","OBJECT_ID":"2023-043AL","EPOCH":"2025-07-29T00:41:32.443008","MEAN_MOTION":13.1554938,"ECCENTRICITY":0.0001994,"INCLINATION":87.9089,"RA_OF_ASC_NODE":323.669,"ARG_OF_PERICENTER":107.9434,"MEAN_ANOMALY":252.1914,"EPHEMERIS_TYPE":0,"CLASSIFICATION_TYPE":"U","NORAD_CAT_ID":56080,"ELEMENT_SET_NO":999,"REV_AT_EPOCH":11393,"BSTAR":-0.00026367,"MEAN_MOTION_DOT":-8.6e-7,"MEAN_MOTION_DDOT":0},{"OBJECT_NAME":"ONEWEB-0718","OBJECT_ID":"2023-043AM","EPOCH":"2025-07-29T06:03:15.022080","MEAN_MOTION":13.15550545,"ECCENTRICITY":0.0001484,"INCLINATION":87.909,"RA_OF_ASC_NODE":323.6076,"ARG_OF_PERICENTER":93.4213,"MEAN_ANOMALY":266.7087,"EPHEMERIS_TYPE":0,"CLASSIFICATION_TYPE":"U","NORAD_CAT_ID":56081,"ELEMENT_SET_NO":999,"REV_AT_EPOCH":11488,"BSTAR":7.7017e-5,"MEAN_MOTION_DOT":4.2e-7,"MEAN_MOTION_DDOT":0},{"OBJECT_NAME":"ONEWEB-0561","OBJECT_ID":"2023-068A","EPOCH":"2025-07-28T15:22:20.159040","MEAN_MOTION":13.20769432,"ECCENTRICITY":0.0002358,"INCLINATION":87.9282,"RA_OF_ASC_NODE":338.9185,"ARG_OF_PERICENTER":104.3574,"MEAN_ANOMALY":255.7821,"EPHEMERIS_TYPE":0,"CLASSIFICATION_TYPE":"U","NORAD_CAT_ID":56710,"ELEMENT_SET_NO":999,"REV_AT_EPOCH":10679,"BSTAR":5.9462e-5,"MEAN_MOTION_DOT":3.7e-7,"MEAN_MOTION_DDOT":0},{"OBJECT_NAME":"ONEWEB-0668","OBJECT_ID":"2023-068B","EPOCH":"2025-07-28T13:22:53.558112","MEAN_MOTION":13.16596616,"ECCENTRICITY":0.000145,"INCLINATION":87.906,"RA_OF_ASC_NODE":293.2641,"ARG_OF_PERICENTER":99.9103,"MEAN_ANOMALY":260.2192,"EPHEMERIS_TYPE":0,"CLASSIFICATION_TYPE":"U","NORAD_CAT_ID":56711,"ELEMENT_SET_NO":999,"REV_AT_EPOCH":10919,"BSTAR":0.00029909,"MEAN_MOTION_DOT":1.27e-6,"MEAN_MOTION_DDOT":0},{"OBJECT_NAME":"ONEWEB-0676","OBJECT_ID":"2023-068C","EPOCH":"2025-07-28T18:22:43.449888","MEAN_MOTION":13.16595654,"ECCENTRICITY":0.000242,"INCLINATION":87.9051,"RA_OF_ASC_NODE":293.2463,"ARG_OF_PERICENTER":104.9472,"MEAN_ANOMALY":255.1927,"EPHEMERIS_TYPE":0,"CLASSIFICATION_TYPE":"U","NORAD_CAT_ID":56712,"ELEMENT_SET_NO":999,"REV_AT_EPOCH":10984,"BSTAR":0.00021873,"MEAN_MOTION_DOT":9.6e-7,"MEAN_MOTION_DDOT":0},{"OBJECT_NAME":"ONEWEB-0677","OBJECT_ID":"2023-068D","EPOCH":"2025-07-29T02:00:59.869728","MEAN_MOTION":13.20771698,"ECCENTRICITY":0.0001945,"INCLINATION":87.9278,"RA_OF_ASC_NODE":338.8072,"ARG_OF_PERICENTER":107.682,"MEAN_ANOMALY":252.4526,"EPHEMERIS_TYPE":0,"CLASSIFICATION_TYPE":"U","NORAD_CAT_ID":56713,"ELEMENT_SET_NO":999,"REV_AT_EPOCH":10785,"BSTAR":0.00010902,"MEAN_MOTION_DOT":5.7e-7,"MEAN_MOTION_DDOT":0},{"OBJECT_NAME":"ONEWEB-0678","OBJECT_ID":"2023-068E","EPOCH":"2025-07-28T20:10:00.963552","MEAN_MOTION":13.15549241,"ECCENTRICITY":0.0002193,"INCLINATION":87.909,"RA_OF_ASC_NODE":323.6611,"ARG_OF_PERICENTER":93.9581,"MEAN_ANOMALY":266.18,"EPHEMERIS_TYPE":0,"CLASSIFICATION_TYPE":"U","NORAD_CAT_ID":56714,"ELEMENT_SET_NO":999,"REV_AT_EPOCH":10747,"BSTAR":0.00027551,"MEAN_MOTION_DOT":1.17e-6,"MEAN_MOTION_DDOT":0},{"OBJECT_NAME":"ONEWEB-0679","OBJECT_ID":"2023-068F","EPOCH":"2025-07-28T17:38:15.438624","MEAN_MOTION":13.16595376,"ECCENTRICITY":0.0001856,"INCLINATION":87.9048,"RA_OF_ASC_NODE":293.2445,"ARG_OF_PERICENTER":114.6113,"MEAN_ANOMALY":245.5211,"EPHEMERIS_TYPE":0,"CLASSIFICATION_TYPE":"U","NORAD_CAT_ID":56715,"ELEMENT_SET_NO":999,"REV_AT_EPOCH":10986,"BSTAR":-5.7545e-5,"MEAN_MOTION_DOT":-9.0e-8,"MEAN_MOTION_DDOT":0},{"OBJECT_NAME":"ONEWEB-0680","OBJECT_ID":"2023-068G","EPOCH":"2025-07-28T19:09:00.997344","MEAN_MOTION":13.21825784,"ECCENTRICITY":0.0001365,"INCLINATION":87.9266,"RA_OF_ASC_NODE":308.4812,"ARG_OF_PERICENTER":108.1753,"MEAN_ANOMALY":251.9529,"EPHEMERIS_TYPE":0,"CLASSIFICATION_TYPE":"U","NORAD_CAT_ID":56716,"ELEMENT_SET_NO":999,"REV_AT_EPOCH":10907,"BSTAR":-9.7081e-5,"MEAN_MOTION_DOT":-2.7e-7,"MEAN_MOTION_DDOT":0},{"OBJECT_NAME":"ONEWEB-0681","OBJECT_ID":"2023-068H","EPOCH":"2025-07-28T19:04:19.210656","MEAN_MOTION":13.2338325,"ECCENTRICITY":0.0002617,"INCLINATION":87.9272,"RA_OF_ASC_NODE":308.5053,"ARG_OF_PERICENTER":118.0705,"MEAN_ANOMALY":242.0694,"EPHEMERIS_TYPE":0,"CLASSIFICATION_TYPE":"U","NORAD_CAT_ID":56717,"ELEMENT_SET_NO":999,"REV_AT_EPOCH":10906,"BSTAR":7.2922e-5,"MEAN_MOTION_DOT":4.4e-7,"MEAN_MOTION_DDOT":0},{"OBJECT_NAME":"ONEWEB-0682","OBJECT_ID":"2023-068J","EPOCH":"2025-07-28T08:00:59.545728","MEAN_MOTION":13.15548835,"ECCENTRICITY":0.0001464,"INCLINATION":87.9072,"RA_OF_ASC_NODE":323.7891,"ARG_OF_PERICENTER":109.3719,"MEAN_ANOMALY":250.757,"EPHEMERIS_TYPE":0,"CLASSIFICATION_TYPE":"U","NORAD_CAT_ID":56718,"ELEMENT_SET_NO":999,"REV_AT_EPOCH":10687,"BSTAR":0.00019635,"MEAN_MOTION_DOT":8.7e-7,"MEAN_MOTION_DDOT":0},{"OBJECT_NAME":"ONEWEB-0683","OBJECT_ID":"2023-068K","EPOCH":"2025-07-28T14:00:21.394944","MEAN_MOTION":13.15550448,"ECCENTRICITY":0.0001626,"INCLINATION":87.9085,"RA_OF_ASC_NODE":323.7123,"ARG_OF_PERICENTER":102.5234,"MEAN_ANOMALY":257.6078,"EPHEMERIS_TYPE":0,"CLASSIFICATION_TYPE":"U","NORAD_CAT_ID":56719,"ELEMENT_SET_NO":999,"REV_AT_EPOCH":10687,"BSTAR":-9.0361e-5,"MEAN_MOTION_DOT":-2.1e-7,"MEAN_MOTION_DDOT":0},{"OBJECT_NAME":"ONEWEB-0684","OBJECT_ID":"2023-068L","EPOCH":"2025-07-28T08:43:12.284832","MEAN_MOTION":13.15549212,"ECCENTRICITY":0.000272,"INCLINATION":87.9058,"RA_OF_ASC_NODE":323.7644,"ARG_OF_PERICENTER":69.5445,"MEAN_ANOMALY":290.5977,"EPHEMERIS_TYPE":0,"CLASSIFICATION_TYPE":"U","NORAD_CAT_ID":56720,"ELEMENT_SET_NO":999,"REV_AT_EPOCH":10667,"BSTAR":6.0868e-5,"MEAN_MOTION_DOT":3.6e-7,"MEAN_MOTION_DDOT":0},{"OBJECT_NAME":"ONEWEB-0686","OBJECT_ID":"2023-068M","EPOCH":"2025-07-28T17:23:26.247840","MEAN_MOTION":13.16595815,"ECCENTRICITY":0.0001751,"INCLINATION":87.9044,"RA_OF_ASC_NODE":293.28,"ARG_OF_PERICENTER":93.9656,"MEAN_ANOMALY":266.1675,"EPHEMERIS_TYPE":0,"CLASSIFICATION_TYPE":"U","NORAD_CAT_ID":56721,"ELEMENT_SET_NO":999,"REV_AT_EPOCH":10985,"BSTAR":-0.0002261,"MEAN_MOTION_DOT":-7.4e-7,"MEAN_MOTION_DDOT":0},{"OBJECT_NAME":"ONEWEB-0694","OBJECT_ID":"2023-068N","EPOCH":"2025-07-28T18:25:00.270336","MEAN_MOTION":13.16592961,"ECCENTRICITY":0.0001599,"INCLINATION":87.906,"RA_OF_ASC_NODE":293.1935,"ARG_OF_PERICENTER":105.3411,"MEAN_ANOMALY":254.7897,"EPHEMERIS_TYPE":0,"CLASSIFICATION_TYPE":"U","NORAD_CAT_ID":56722,"ELEMENT_SET_NO":999,"REV_AT_EPOCH":10991,"BSTAR":0.00021591,"MEAN_MOTION_DOT":9.5e-7,"MEAN_MOTION_DDOT":0},{"OBJECT_NAME":"ONEWEB-0696","OBJECT_ID":"2023-068P","EPOCH":"2025-07-29T00:07:18.044544","MEAN_MOTION":13.1555008,"ECCENTRICITY":0.0002152,"INCLINATION":87.9088,"RA_OF_ASC_NODE":323.6815,"ARG_OF_PERICENTER":93.8669,"MEAN_ANOMALY":266.2708,"EPHEMERIS_TYPE":0,"CLASSIFICATION_TYPE":"U","NORAD_CAT_ID":56723,"ELEMENT_SET_NO":999,"REV_AT_EPOCH":10757,"BSTAR":0.00041111,"MEAN_MOTION_DOT":1.68e-6,"MEAN_MOTION_DDOT":0}]
